*******************************************************************************
Ephemeris / WWW_USER Mon Mar 10 08:45:03 2025 Pasadena, USA      / Horizons    
*******************************************************************************
Target body name: (2018 PL28)                     {source: JPL#6}
Center body name: Earth (399)                     {source: DE441}
Center-site name: Mauna Kea
*******************************************************************************
Start time      : A.D. 2018-Oct-22 04:03:00.0000 UT      
Stop  time      : A.D. 2018-Oct-22 16:09:00.0000 UT      
Step-size       : 1 minutes
*******************************************************************************
Target pole/equ : undefined
Target radii    : undefined                                                    
Center geodetic : 204.5278, 19.8260847, 4.21024   {E-lon(deg),Lat(deg),Alt(km)}
Center cylindric: 204.5278, 6006.35451, 2151.0229 {E-lon(deg),Dxy(km),Dz(km)}
Center pole/equ : ITRF93                          {East-longitude positive}
Center radii    : 6378.137, 6378.137, 6356.752 km {Equator_a, b, pole_c}       
Target primary  : Sun
Vis. interferer : MOON (R_eq= 1737.400) km        {source: DE441}
Rel. light bend : Sun                             {source: DE441}
Rel. lght bnd GM: 1.3271E+11 km^3/s^2                                          
Small-body perts: Yes                             {source: SB441-N16}
Atmos refraction: NO (AIRLESS)
RA format       : HMS
Time format     : CAL 
Calendar mode   : Mixed Julian/Gregorian
RTS-only print  : NO       
EOP file        : eop.250307.p250603                                           
EOP coverage    : DATA-BASED 1962-JAN-20 TO 2025-MAR-07. PREDICTS-> 2025-JUN-02
Units conversion: 1 au= 149597870.700 km, c= 299792.458 km/s, 1 day= 86400.0 s 
Table cut-offs 1: Elevation (-90.0deg=NO ),Airmass (>38.000=NO), Daylight (YES)
Table cut-offs 2: Solar elongation (  0.0,180.0=NO ),Local Hour Angle( 0.0=NO )
Table cut-offs 3: RA/DEC angular rate (     0.0=NO )                           
*******************************************************************************
Initial IAU76/J2000 heliocentric ecliptic osculating elements (au, days, deg.):
  EPOCH=  2457854.5 ! 2017-Apr-11.00 (TDB)         Residual RMS= .19092        
   EC= .8623380004677549   QR= 2.686075926237564   TP= 2457951.5509793968      
   OM= 350.7805373480467   W=  275.0956674869335   IN= 74.19591911353062       
  Equivalent ICRF heliocentric cartesian coordinates (au, au/d):
   X=-1.230595634603956E+00  Y= 5.216934222523280E-01  Z=-2.512561684350396E+00
  VX= 1.337943797263742E-02 VY=-1.672601025687851E-03 VZ=-3.313586071138778E-03
Asteroid physical parameters (km, seconds, rotational period in hours):        
   GM= n.a.                RAD= n.a.               ROTPER= n.a.                
   H= 14.87                G= .150                 B-V= n.a.                   
                           ALBEDO= n.a.            STYP= n.a.                  
*******************************************************************************
 Date__(UT)__HR:MN     R.A._________(ICRF)_________DEC
******************************************************
$$SOE
 2018-Oct-22 10:12  m  22 52 39.133108 -02 00 02.53119
 2018-Oct-22 10:13  m  22 52 39.108015 -02 00 02.44633
 2018-Oct-22 10:14  m  22 52 39.082925 -02 00 02.36147
 2018-Oct-22 10:15  m  22 52 39.057837 -02 00 02.27660
 2018-Oct-22 10:16  m  22 52 39.032752 -02 00 02.19173
 2018-Oct-22 10:17  m  22 52 39.007668 -02 00 02.10686
 2018-Oct-22 10:18  m  22 52 38.982587 -02 00 02.02199
 2018-Oct-22 10:19  m  22 52 38.957509 -02 00 01.93712
 2018-Oct-22 10:20  m  22 52 38.932432 -02 00 01.85224
 2018-Oct-22 10:21  m  22 52 38.907358 -02 00 01.76736
 2018-Oct-22 10:22  m  22 52 38.882286 -02 00 01.68248
 2018-Oct-22 10:23  m  22 52 38.857217 -02 00 01.59760
 2018-Oct-22 10:24  m  22 52 38.832150 -02 00 01.51272
 2018-Oct-22 10:25  m  22 52 38.807085 -02 00 01.42783
 2018-Oct-22 10:26  m  22 52 38.782023 -02 00 01.34294
 2018-Oct-22 10:27  m  22 52 38.756963 -02 00 01.25806
 2018-Oct-22 10:28  m  22 52 38.731905 -02 00 01.17317
 2018-Oct-22 10:29  m  22 52 38.706850 -02 00 01.08827
 2018-Oct-22 10:30  m  22 52 38.681797 -02 00 01.00338
 2018-Oct-22 10:31  m  22 52 38.656747 -02 00 00.91848
 2018-Oct-22 10:32  m  22 52 38.631698 -02 00 00.83358
 2018-Oct-22 10:33  m  22 52 38.606653 -02 00 00.74868
 2018-Oct-22 10:34  m  22 52 38.581610 -02 00 00.66378
 2018-Oct-22 10:35  m  22 52 38.556569 -02 00 00.57888
 2018-Oct-22 10:36  m  22 52 38.531530 -02 00 00.49397
 2018-Oct-22 10:37  m  22 52 38.506494 -02 00 00.40907
 2018-Oct-22 10:38  m  22 52 38.481461 -02 00 00.32416
 2018-Oct-22 10:39  m  22 52 38.456430 -02 00 00.23925
 2018-Oct-22 10:40  m  22 52 38.431401 -02 00 00.15434
 2018-Oct-22 10:41  m  22 52 38.406375 -02 00 00.06942
 2018-Oct-22 10:42  m  22 52 38.381352 -01 59 59.98451
 2018-Oct-22 10:43  m  22 52 38.356330 -01 59 59.89959
 2018-Oct-22 10:44  m  22 52 38.331312 -01 59 59.81467
 2018-Oct-22 10:45  m  22 52 38.306295 -01 59 59.72975
 2018-Oct-22 10:46  m  22 52 38.281282 -01 59 59.64483
 2018-Oct-22 10:47  m  22 52 38.256271 -01 59 59.55990
 2018-Oct-22 10:48  m  22 52 38.231262 -01 59 59.47498
 2018-Oct-22 10:49  m  22 52 38.206256 -01 59 59.39005
 2018-Oct-22 10:50  m  22 52 38.181252 -01 59 59.30512
 2018-Oct-22 10:51  m  22 52 38.156251 -01 59 59.22019
 2018-Oct-22 10:52  m  22 52 38.131252 -01 59 59.13525
 2018-Oct-22 10:53  m  22 52 38.106256 -01 59 59.05032
 2018-Oct-22 10:54  m  22 52 38.081263 -01 59 58.96538
 2018-Oct-22 10:55  m  22 52 38.056272 -01 59 58.88044
 2018-Oct-22 10:56  m  22 52 38.031284 -01 59 58.79550
 2018-Oct-22 10:57  m  22 52 38.006298 -01 59 58.71056
 2018-Oct-22 10:58  m  22 52 37.981315 -01 59 58.62562
 2018-Oct-22 10:59  m  22 52 37.956334 -01 59 58.54067
 2018-Oct-22 11:00  m  22 52 37.931356 -01 59 58.45573
 2018-Oct-22 11:01  m  22 52 37.906381 -01 59 58.37078
 2018-Oct-22 11:02  m  22 52 37.881408 -01 59 58.28583
 2018-Oct-22 11:03  m  22 52 37.856438 -01 59 58.20087
 2018-Oct-22 11:04  m  22 52 37.831470 -01 59 58.11592
 2018-Oct-22 11:05  m  22 52 37.806505 -01 59 58.03097
 2018-Oct-22 11:06  m  22 52 37.781543 -01 59 57.94601
 2018-Oct-22 11:07  m  22 52 37.756583 -01 59 57.86105
 2018-Oct-22 11:08  m  22 52 37.731626 -01 59 57.77609
 2018-Oct-22 11:09  m  22 52 37.706671 -01 59 57.69113
 2018-Oct-22 11:10  m  22 52 37.681719 -01 59 57.60617
 2018-Oct-22 11:11  m  22 52 37.656770 -01 59 57.52120
 2018-Oct-22 11:12  m  22 52 37.631824 -01 59 57.43623
 2018-Oct-22 11:13  m  22 52 37.606880 -01 59 57.35127
 2018-Oct-22 11:14  m  22 52 37.581939 -01 59 57.26630
 2018-Oct-22 11:15  m  22 52 37.557000 -01 59 57.18132
 2018-Oct-22 11:16  m  22 52 37.532064 -01 59 57.09635
 2018-Oct-22 11:17  m  22 52 37.507131 -01 59 57.01138
 2018-Oct-22 11:18  m  22 52 37.482201 -01 59 56.92640
 2018-Oct-22 11:19  m  22 52 37.457273 -01 59 56.84142
 2018-Oct-22 11:20  m  22 52 37.432348 -01 59 56.75644
 2018-Oct-22 11:21  m  22 52 37.407425 -01 59 56.67146
 2018-Oct-22 11:22  m  22 52 37.382506 -01 59 56.58648
 2018-Oct-22 11:23  m  22 52 37.357589 -01 59 56.50149
 2018-Oct-22 11:24  m  22 52 37.332675 -01 59 56.41651
 2018-Oct-22 11:25  m  22 52 37.307763 -01 59 56.33152
 2018-Oct-22 11:26  m  22 52 37.282854 -01 59 56.24653
 2018-Oct-22 11:27  m  22 52 37.257948 -01 59 56.16154
 2018-Oct-22 11:28  m  22 52 37.233045 -01 59 56.07655
 2018-Oct-22 11:29  m  22 52 37.208145 -01 59 55.99156
 2018-Oct-22 11:30  m  22 52 37.183247 -01 59 55.90656
 2018-Oct-22 11:31  m  22 52 37.158352 -01 59 55.82156
 2018-Oct-22 11:32  m  22 52 37.133459 -01 59 55.73657
 2018-Oct-22 11:33  m  22 52 37.108570 -01 59 55.65157
 2018-Oct-22 11:34  m  22 52 37.083683 -01 59 55.56657
 2018-Oct-22 11:35  m  22 52 37.058799 -01 59 55.48156
 2018-Oct-22 11:36  m  22 52 37.033918 -01 59 55.39656
 2018-Oct-22 11:37  m  22 52 37.009040 -01 59 55.31155
 2018-Oct-22 11:38  m  22 52 36.984164 -01 59 55.22655
 2018-Oct-22 11:39  m  22 52 36.959291 -01 59 55.14154
 2018-Oct-22 11:40  m  22 52 36.934421 -01 59 55.05653
 2018-Oct-22 11:41  m  22 52 36.909554 -01 59 54.97151
 2018-Oct-22 11:42  m  22 52 36.884690 -01 59 54.88650
 2018-Oct-22 11:43  m  22 52 36.859828 -01 59 54.80149
 2018-Oct-22 11:44  m  22 52 36.834969 -01 59 54.71647
 2018-Oct-22 11:45  m  22 52 36.810113 -01 59 54.63145
 2018-Oct-22 11:46  m  22 52 36.785260 -01 59 54.54643
 2018-Oct-22 11:47  m  22 52 36.760410 -01 59 54.46141
 2018-Oct-22 11:48  m  22 52 36.735562 -01 59 54.37639
 2018-Oct-22 11:49  m  22 52 36.710718 -01 59 54.29137
 2018-Oct-22 11:50  m  22 52 36.685876 -01 59 54.20634
 2018-Oct-22 11:51  m  22 52 36.661037 -01 59 54.12132
 2018-Oct-22 11:52  m  22 52 36.636201 -01 59 54.03629
 2018-Oct-22 11:53  m  22 52 36.611367 -01 59 53.95126
 2018-Oct-22 11:54  m  22 52 36.586537 -01 59 53.86623
 2018-Oct-22 11:55  m  22 52 36.561709 -01 59 53.78120
 2018-Oct-22 11:56  m  22 52 36.536885 -01 59 53.69616
 2018-Oct-22 11:57  m  22 52 36.512063 -01 59 53.61113
 2018-Oct-22 11:58  m  22 52 36.487244 -01 59 53.52609
 2018-Oct-22 11:59  m  22 52 36.462428 -01 59 53.44106
 2018-Oct-22 12:00  m  22 52 36.437614 -01 59 53.35602
 2018-Oct-22 12:01  m  22 52 36.412804 -01 59 53.27098
 2018-Oct-22 12:02  m  22 52 36.387997 -01 59 53.18593
 2018-Oct-22 12:03  m  22 52 36.363192 -01 59 53.10089
 2018-Oct-22 12:04  m  22 52 36.338390 -01 59 53.01585
 2018-Oct-22 12:05  m  22 52 36.313592 -01 59 52.93080
 2018-Oct-22 12:06  m  22 52 36.288796 -01 59 52.84575
 2018-Oct-22 12:07  m  22 52 36.264003 -01 59 52.76071
 2018-Oct-22 12:08  m  22 52 36.239212 -01 59 52.67566
 2018-Oct-22 12:09  m  22 52 36.214425 -01 59 52.59060
 2018-Oct-22 12:10  m  22 52 36.189641 -01 59 52.50555
 2018-Oct-22 12:11  m  22 52 36.164859 -01 59 52.42050
 2018-Oct-22 12:12  m  22 52 36.140081 -01 59 52.33544
 2018-Oct-22 12:13  m  22 52 36.115305 -01 59 52.25039
 2018-Oct-22 12:14  m  22 52 36.090533 -01 59 52.16533
